{
  "type": "FeatureCollection",
  "features": [
    {
      "type": "Feature",
      "properties": {
        "norad_id": 42917,
        "name": "QZS-3 (QZSS/PRN 199)",
        "group": "gnss",
        "lat": -0.03751107569151509,
        "lon": 57.059620965796064,
        "alt_km": 35790.95036745029,
        "timestamp": "2025-12-27T12:55:14.746939+00:00",
        "meta_object_name": "QZS-3 (QZSS/PRN 199)",
        "meta_object_id": "2017-048A",
        "meta_epoch": "2025-12-27T06:45:26.199072",
        "meta_mean_motion": 1.00276018,
        "meta_eccentricity": 0.00015844,
        "meta_inclination": 0.0564,
        "meta_ra_of_asc_node": 171.6937,
        "meta_arg_of_pericenter": 91.5684,
        "meta_mean_anomaly": 61.0875,
        "meta_ephemeris_type": 0,
        "meta_classification_type": "U",
        "meta_norad_cat_id": 42917,
        "meta_element_set_no": 999,
        "meta_rev_at_epoch": 3053,
        "meta_bstar": 0,
        "meta_mean_motion_dot": -3.25e-06,
        "meta_mean_motion_ddot": 0,
        "tle_line1": "1 42917U 17048A   25361.28155323 -.00000325  00000+0  00000+0 0  9998",
        "tle_line2": "2 42917   0.0564 171.6937 0001584  91.5684  61.0875  1.00276018 30538"
      },
      "geometry": {
        "type": "Point",
        "coordinates": [
          57.059620965796064,
          -0.03751107569151509
        ]
      }
    },
    {
      "type": "Feature",
      "properties": {
        "norad_id": 42939,
        "name": "COSMOS 2522 (752)",
        "group": "gnss",
        "lat": 46.763924008689244,
        "lon": -13.434429120167058,
        "alt_km": 19126.535811359445,
        "timestamp": "2025-12-27T12:55:14.746950+00:00",
        "meta_object_name": "COSMOS 2522 (752)",
        "meta_object_id": "2017-055A",
        "meta_epoch": "2025-12-26T21:43:05.051712",
        "meta_mean_motion": 2.13102008,
        "meta_eccentricity": 0.00062768,
        "meta_inclination": 64.0768,
        "meta_ra_of_asc_node": 197.7464,
        "meta_arg_of_pericenter": 223.1199,
        "meta_mean_anomaly": 136.885,
        "meta_ephemeris_type": 0,
        "meta_classification_type": "U",
        "meta_norad_cat_id": 42939,
        "meta_element_set_no": 999,
        "meta_rev_at_epoch": 6430,
        "meta_bstar": 0,
        "meta_mean_motion_dot": 1.18e-06,
        "meta_mean_motion_ddot": 0,
        "tle_line1": "1 42939U 17055A   25360.90491958  .00000118  00000+0  00000+0 0  9994",
        "tle_line2": "2 42939  64.0768 197.7464 0006276 223.1199 136.8850  2.13102008 64307"
      },
      "geometry": {
        "type": "Point",
        "coordinates": [
          -13.434429120167058,
          46.763924008689244
        ]
      }
    },
    {
      "type": "Feature",
      "properties": {
        "norad_id": 42965,
        "name": "QZS-4 (QZSS/PRN 195)",
        "group": "gnss",
        "lat": 39.76616575250234,
        "lon": 65.58325384362043,
        "alt_km": 38932.07081457228,
        "timestamp": "2025-12-27T12:55:14.746964+00:00",
        "meta_object_name": "QZS-4 (QZSS/PRN 195)",
        "meta_object_id": "2017-062A",
        "meta_epoch": "2025-12-24T19:47:03.643008",
        "meta_mean_motion": 1.00301022,
        "meta_eccentricity": 0.0751986,
        "meta_inclination": 40.2171,
        "meta_ra_of_asc_node": 345.7144,
        "meta_arg_of_pericenter": 268.3083,
        "meta_mean_anomaly": 272.9513,
        "meta_ephemeris_type": 0,
        "meta_classification_type": "U",
        "meta_norad_cat_id": 42965,
        "meta_element_set_no": 999,
        "meta_rev_at_epoch": 3005,
        "meta_bstar": 0,
        "meta_mean_motion_dot": -3.02e-06,
        "meta_mean_motion_ddot": 0,
        "tle_line1": "1 42965U 17062A   25358.82434772 -.00000302  00000+0  00000+0 0  9996",
        "tle_line2": "2 42965  40.2171 345.7144 0751986 268.3083 272.9513  1.00301022 30053"
      },
      "geometry": {
        "type": "Point",
        "coordinates": [
          65.58325384362043,
          39.76616575250234
        ]
      }
    },
    {
      "type": "Feature",
      "properties": {
        "norad_id": 43001,
        "name": "BEIDOU-3 M1 (C19)",
        "group": "gnss",
        "lat": 20.85049997248444,
        "lon": -125.81091043934637,
        "alt_km": 21548.58843321337,
        "timestamp": "2025-12-27T12:55:14.746977+00:00",
        "meta_object_name": "BEIDOU-3 M1 (C19)",
        "meta_object_id": "2017-069A",
        "meta_epoch": "2025-12-25T03:49:47.920224",
        "meta_mean_motion": 1.86231313,
        "meta_eccentricity": 0.0009789,
        "meta_inclination": 56.5365,
        "meta_ra_of_asc_node": 68.8241,
        "meta_arg_of_pericenter": 302.2681,
        "meta_mean_anomaly": 57.6912,
        "meta_ephemeris_type": 0,
        "meta_classification_type": "U",
        "meta_norad_cat_id": 43001,
        "meta_element_set_no": 999,
        "meta_rev_at_epoch": 5536,
        "meta_bstar": 0,
        "meta_mean_motion_dot": -2.5e-07,
        "meta_mean_motion_ddot": 0,
        "tle_line1": "1 43001U 17069A   25359.15958241 -.00000025  00000+0  00000+0 0  9996",
        "tle_line2": "2 43001  56.5365  68.8241 0009789 302.2681  57.6912  1.86231313 55361"
      },
      "geometry": {
        "type": "Point",
        "coordinates": [
          -125.81091043934637,
          20.85049997248444
        ]
      }
    },
    {
      "type": "Feature",
      "properties": {
        "norad_id": 43002,
        "name": "BEIDOU-3 M2 (C20)",
        "group": "gnss",
        "lat": -13.39282772311664,
        "lon": -102.15497477191278,
        "alt_km": 21542.582718069552,
        "timestamp": "2025-12-27T12:55:14.747046+00:00",
        "meta_object_name": "BEIDOU-3 M2 (C20)",
        "meta_object_id": "2017-069B",
        "meta_epoch": "2025-12-25T15:14:16.903968",
        "meta_mean_motion": 1.86231039,
        "meta_eccentricity": 0.0006764,
        "meta_inclination": 56.5366,
        "meta_ra_of_asc_node": 68.8439,
        "meta_arg_of_pericenter": 327.6836,
        "meta_mean_anomaly": 32.3283,
        "meta_ephemeris_type": 0,
        "meta_classification_type": "U",
        "meta_norad_cat_id": 43002,
        "meta_element_set_no": 999,
        "meta_rev_at_epoch": 5536,
        "meta_bstar": 0,
        "meta_mean_motion_dot": -2.7e-07,
        "meta_mean_motion_ddot": 0,
        "tle_line1": "1 43002U 17069B   25359.63491787 -.00000027  00000+0  00000+0 0  9999",
        "tle_line2": "2 43002  56.5366  68.8439 0006764 327.6836  32.3283  1.86231039 55361"
      },
      "geometry": {
        "type": "Point",
        "coordinates": [
          -102.15497477191278,
          -13.39282772311664
        ]
      }
    },
    {
      "type": "Feature",
      "properties": {
        "norad_id": 43055,
        "name": "GSAT0215 (GALILEO 19)",
        "group": "gnss",
        "lat": -45.29063981135278,
        "lon": 91.0131106985257,
        "alt_km": 23228.678605027628,
        "timestamp": "2025-12-27T12:55:14.747070+00:00",
        "meta_object_name": "GSAT0215 (GALILEO 19)",
        "meta_object_id": "2017-079A",
        "meta_epoch": "2025-12-24T05:08:42.877824",
        "meta_mean_motion": 1.70473983,
        "meta_eccentricity": 0.00011857,
        "meta_inclination": 55.1264,
        "meta_ra_of_asc_node": 226.3216,
        "meta_arg_of_pericenter": 351.3988,
        "meta_mean_anomaly": 8.6951,
        "meta_ephemeris_type": 0,
        "meta_classification_type": "U",
        "meta_norad_cat_id": 43055,
        "meta_element_set_no": 999,
        "meta_rev_at_epoch": 5000,
        "meta_bstar": 0,
        "meta_mean_motion_dot": 7.2e-07,
        "meta_mean_motion_ddot": 0,
        "tle_line1": "1 43055U 17079A   25358.21438516  .00000072  00000+0  00000+0 0  9991",
        "tle_line2": "2 43055  55.1264 226.3216 0001185 351.3988   8.6951  1.70473983 50002"
      },
      "geometry": {
        "type": "Point",
        "coordinates": [
          91.0131106985257,
          -45.29063981135278
        ]
      }
    },
    {
      "type": "Feature",
      "properties": {
        "norad_id": 43056,
        "name": "GSAT0216 (GALILEO 20)",
        "group": "gnss",
        "lat": 46.003865349997625,
        "lon": -87.5361457040571,
        "alt_km": 23217.286686420135,
        "timestamp": "2025-12-27T12:55:14.747091+00:00",
        "meta_object_name": "GSAT0216 (GALILEO 20)",
        "meta_object_id": "2017-079B",
        "meta_epoch": "2025-12-25T02:12:49.402944",
        "meta_mean_motion": 1.7047407,
        "meta_eccentricity": 0.00022728,
        "meta_inclination": 55.1265,
        "meta_ra_of_asc_node": 226.2974,
        "meta_arg_of_pericenter": 325.9162,
        "meta_mean_anomaly": 34.1608,
        "meta_ephemeris_type": 0,
        "meta_classification_type": "U",
        "meta_norad_cat_id": 43056,
        "meta_element_set_no": 999,
        "meta_rev_at_epoch": 5003,
        "meta_bstar": 0,
        "meta_mean_motion_dot": 7e-07,
        "meta_mean_motion_ddot": 0,
        "tle_line1": "1 43056U 17079B   25359.09223846  .00000070  00000+0  00000+0 0  9995",
        "tle_line2": "2 43056  55.1265 226.2974 0002272 325.9162  34.1608  1.70474070 50037"
      },
      "geometry": {
        "type": "Point",
        "coordinates": [
          -87.5361457040571,
          46.003865349997625
        ]
      }
    }
  ]
}